LANDSAT 9               
1 49260U 21088A   24036.91392127  .00000620  00000+0  14753-3 0  9999
2 49260  98.2034 108.6855 0000980 103.6973 256.4335 14.57111364125434
